0 CZ-4 DEB
1 20904U 90081BQ  13281.84842520  .00001271  00000-0  49525-3 0  9877
2 20904 098.5231 311.2675 0025844 339.7480 105.5324 14.31254902191829
0 CZ-4 DEB
1 20904U 90081BQ  13284.08021116  .00001529  00000-0  59223-3 0  9889
2 20904 098.5228 313.4577 0025817 332.7176 085.3280 14.31264690192142
0 CZ-4 DEB
1 20904U 90081BQ  13286.54577777  .00001386  00000-0  53852-3 0  9895
2 20904 098.5222 315.8772 0025768 324.9946 189.7627 14.31271807192492
0 CZ-4 DEB
1 20904U 90081BQ  13288.63559425  .00002172  00000-0  83437-3 0  9905
2 20904 098.5217 317.9278 0025799 318.4085 158.1497 14.31282083192792
0 CZ-4 DEB
1 20904U 90081BQ  13291.06494588  .00001808  00000-0  69718-3 0  9916
2 20904 098.5214 320.3113 0025855 310.7589 076.1741 14.31291392193146
0 CZ-4 DEB
1 20904U 90081BQ  13293.09997317  .00002223  00000-0  85337-3 0  9927
2 20904 098.5210 322.3075 0025832 304.7349 121.9974 14.31296473193437
0 CZ-4 DEB
1 20904U 90081BQ  13295.33655447  .00002088  00000-0  80211-3 0  9937
2 20904 098.5214 324.5018 0026048 297.4319 127.0970 14.31307269193751
